{
  "norad_id": 47749,
  "name": "STARLINK-2163",
  "history": [
    {
      "epoch": "2026-03-28T22:00:01.999584Z",
      "apogee_km": 425.0676086858475,
      "perigee_km": 422.82645803853484,
      "latitude_deg": 28.637121599245855,
      "longitude_deg": -28.296184716770814,
      "height_km": 424.921174828977,
      "semi_major_axis_km": 6802.084033362191,
      "eccentricity": 0.00016474,
      "inclination_deg": 53.1586,
      "raan_deg": 104.0358,
      "arg_perigee_deg": 99.4886,
      "mean_anomaly_deg": 297.1963,
      "mean_motion_rev_day": 15.47532479
    },
    {
      "epoch": "2026-03-29T00:56:34.880640Z",
      "apogee_km": 424.95568341451235,
      "perigee_km": 422.76544019960966,
      "latitude_deg": 5.445505773408146e-07,
      "longitude_deg": -97.14484506994519,
      "height_km": 424.8656698278221,
      "semi_major_axis_km": 6801.99756180706,
      "eccentricity": 0.000161,
      "inclination_deg": 53.1587,
      "raan_deg": 103.4516,
      "arg_perigee_deg": 95.2853,
      "mean_anomaly_deg": 264.8339,
      "mean_motion_rev_day": 15.47561989
    },
    {
      "epoch": "2026-03-30T04:50:25.589184Z",
      "apogee_km": 424.59952085264194,
      "perigee_km": 422.16022484136374,
      "latitude_deg": 1.5950236434010928e-06,
      "longitude_deg": -162.29713545515415,
      "height_km": 424.48805095604746,
      "semi_major_axis_km": 6801.516872847003,
      "eccentricity": 0.00017932,
      "inclination_deg": 53.1592,
      "raan_deg": 97.9063,
      "arg_perigee_deg": 99.6318,
      "mean_anomaly_deg": 260.4893,
      "mean_motion_rev_day": 15.4772605
    },
    {
      "epoch": "2026-03-30T09:29:22.595424Z",
      "apogee_km": 424.454692547185,
      "perigee_km": 421.8019270257546,
      "latitude_deg": 4.861536963078621e-05,
      "longitude_deg": 126.84983924001193,
      "height_km": 424.1177384238631,
      "semi_major_axis_km": 6801.2653097864695,
      "eccentricity": 0.00019502,
      "inclination_deg": 53.1584,
      "raan_deg": 96.9817,
      "arg_perigee_deg": 93.7017,
      "mean_anomaly_deg": 266.4215,
      "mean_motion_rev_day": 15.47811921
    },
    {
      "epoch": "2026-03-30T17:14:16.232352Z",
      "apogee_km": 424.13312698484424,
      "perigee_km": 421.64966345604626,
      "latitude_deg": 3.200885794553051e-05,
      "longitude_deg": 8.769731439836484,
      "height_km": 424.03931136473074,
      "semi_major_axis_km": 6801.028395220445,
      "eccentricity": 0.00018258,
      "inclination_deg": 53.1579,
      "raan_deg": 95.4433,
      "arg_perigee_deg": 101.3285,
      "mean_anomaly_deg": 258.7929,
      "mean_motion_rev_day": 15.47892799
    },
    {
      "epoch": "2026-03-31T07:11:01.683456Z",
      "apogee_km": 423.80925504085735,
      "perigee_km": 421.26716264779134,
      "latitude_deg": -1.82953396095679e-05,
      "longitude_deg": 156.23397493559042,
      "height_km": 423.752345180697,
      "semi_major_axis_km": 6800.675208844324,
      "eccentricity": 0.0001869,
      "inclination_deg": 53.1579,
      "raan_deg": 92.6697,
      "arg_perigee_deg": 104.1219,
      "mean_anomaly_deg": 255.9997,
      "mean_motion_rev_day": 15.48013383
    },
    {
      "epoch": "2026-04-01T06:25:28.728768Z",
      "apogee_km": 423.2513048287756,
      "perigee_km": 420.6387133208891,
      "latitude_deg": 2.2830346176460832e-05,
      "longitude_deg": 162.04475046433586,
      "height_km": 423.3392810395367,
      "semi_major_axis_km": 6800.082009074832,
      "eccentricity": 0.0001921,
      "inclination_deg": 53.1581,
      "raan_deg": 88.0476,
      "arg_perigee_deg": 112.0364,
      "mean_anomaly_deg": 248.0849,
      "mean_motion_rev_day": 15.48215947
    },
    {
      "epoch": "2026-04-02T20:00:01.999008Z",
      "apogee_km": 422.5756138301658,
      "perigee_km": 419.56492485130184,
      "latitude_deg": 53.248455522563724,
      "longitude_deg": 43.253203423625834,
      "height_km": 426.2658947012916,
      "semi_major_axis_km": 6799.207269340734,
      "eccentricity": 0.0002214,
      "inclination_deg": 53.1577,
      "raan_deg": 80.5713,
      "arg_perigee_deg": 118.1483,
      "mean_anomaly_deg": 334.1808,
      "mean_motion_rev_day": 15.48514731
    },
    {
      "epoch": "2026-04-02T22:00:01.999584Z",
      "apogee_km": 422.50690366496565,
      "perigee_km": 419.4804746126156,
      "latitude_deg": -13.823463153235064,
      "longitude_deg": 109.4702824500518,
      "height_km": 424.4229368954107,
      "semi_major_axis_km": 6799.13068913879,
      "eccentricity": 0.00022256,
      "inclination_deg": 53.1577,
      "raan_deg": 80.1732,
      "arg_perigee_deg": 117.9419,
      "mean_anomaly_deg": 79.2036,
      "mean_motion_rev_day": 15.48540893
    },
    {
      "epoch": "2026-04-03T15:44:22.100640Z",
      "apogee_km": 422.0230451649568,
      "perigee_km": 419.03978946343886,
      "latitude_deg": 8.30947664692338e-06,
      "longitude_deg": 8.563022152863633,
      "height_km": 422.03822690435595,
      "semi_major_axis_km": 6798.6684173141975,
      "eccentricity": 0.0002194,
      "inclination_deg": 53.1589,
      "raan_deg": 76.6421,
      "arg_perigee_deg": 113.8323,
      "mean_anomaly_deg": 246.2916,
      "mean_motion_rev_day": 15.48698834
    },
    {
      "epoch": "2026-04-04T05:40:42.111264Z",
      "apogee_km": 421.77596054354126,
      "perigee_km": 418.77786000911055,
      "latitude_deg": -4.413423852889487e-05,
      "longitude_deg": 156.13595528090448,
      "height_km": 422.0008573689315,
      "semi_major_axis_km": 6798.413910276326,
      "eccentricity": 0.0002205,
      "inclination_deg": 53.1575,
      "raan_deg": 73.8709,
      "arg_perigee_deg": 123.1498,
      "mean_anomaly_deg": 236.9722,
      "mean_motion_rev_day": 15.48785801
    },
    {
      "epoch": "2026-04-05T12:00:02.999808Z",
      "apogee_km": 420.76487170533073,
      "perigee_km": 417.6734341269839,
      "latitude_deg": -23.359906776519693,
      "longitude_deg": -107.21325874553474,
      "height_km": 425.6825149099538,
      "semi_major_axis_km": 6797.356152916157,
      "eccentricity": 0.0002274,
      "inclination_deg": 53.1579,
      "raan_deg": 67.832,
      "arg_perigee_deg": 127.9899,
      "mean_anomaly_deg": 81.4277,
      "mean_motion_rev_day": 15.49147332
    },
    {
      "epoch": "2026-04-05T20:00:03.000384Z",
      "apogee_km": 420.78118008809815,
      "perigee_km": 417.40975278474525,
      "latitude_deg": -53.30847393549501,
      "longitude_deg": -158.71639616413606,
      "height_km": 438.8482476764524,
      "semi_major_axis_km": 6797.232466436421,
      "eccentricity": 0.000248,
      "inclination_deg": 53.1582,
      "raan_deg": 66.2368,
      "arg_perigee_deg": 133.1475,
      "mean_anomaly_deg": 136.3476,
      "mean_motion_rev_day": 15.49189616
    },
    {
      "epoch": "2026-04-06T02:35:01.375584Z",
      "apogee_km": 420.4893053353089,
      "perigee_km": 417.2276990736218,
      "latitude_deg": -7.242438953246946e-06,
      "longitude_deg": -168.2324852583452,
      "height_km": 420.870846581486,
      "semi_major_axis_km": 6796.995502204465,
      "eccentricity": 0.00023993,
      "inclination_deg": 53.1588,
      "raan_deg": 64.9269,
      "arg_perigee_deg": 132.7831,
      "mean_anomaly_deg": 227.338,
      "mean_motion_rev_day": 15.49270631
    },
    {
      "epoch": "2026-04-07T04:54:05.868576Z",
      "apogee_km": 419.8460316876317,
      "perigee_km": 416.44000799288915,
      "latitude_deg": 2.659026905141012e-05,
      "longitude_deg": 150.67307798395112,
      "height_km": 420.35436065222495,
      "semi_major_axis_km": 6796.28001984026,
      "eccentricity": 0.00025058,
      "inclination_deg": 53.1587,
      "raan_deg": 59.682,
      "arg_perigee_deg": 140.0944,
      "mean_anomaly_deg": 220.025,
      "mean_motion_rev_day": 15.49515288
    },
    {
      "epoch": "2026-04-07T20:22:51.648960Z",
      "apogee_km": 419.54005373052223,
      "perigee_km": 416.0849929928445,
      "latitude_deg": -1.7538269453939877e-05,
      "longitude_deg": -85.23822407392932,
      "height_km": 420.1088278288892,
      "semi_major_axis_km": 6795.949523361683,
      "eccentricity": 0.0002542,
      "inclination_deg": 53.1583,
      "raan_deg": 56.5972,
      "arg_perigee_deg": 143.6404,
      "mean_anomaly_deg": 216.4778,
      "mean_motion_rev_day": 15.49628322
    },
    {
      "epoch": "2026-04-08T04:07:12.699264Z",
      "apogee_km": 419.2998812679207,
      "perigee_km": 415.89413121335383,
      "latitude_deg": 3.6149398702404116e-05,
      "longitude_deg": 156.81416849869896,
      "height_km": 419.92039892820225,
      "semi_major_axis_km": 6795.734006240637,
      "eccentricity": 0.00025058,
      "inclination_deg": 53.1588,
      "raan_deg": 55.0551,
      "arg_perigee_deg": 146.381,
      "mean_anomaly_deg": 213.7359,
      "mean_motion_rev_day": 15.49702039
    },
    {
      "epoch": "2026-04-09T06:25:51.748320Z",
      "apogee_km": 418.6997716891965,
      "perigee_km": 415.2596758966092,
      "latitude_deg": 6.741225250845506e-05,
      "longitude_deg": 115.82553596132043,
      "height_km": 419.4638100701297,
      "semi_major_axis_km": 6795.116723792903,
      "eccentricity": 0.00025313,
      "inclination_deg": 53.1606,
      "raan_deg": 49.8097,
      "arg_perigee_deg": 156.5475,
      "mean_anomaly_deg": 203.5651,
      "mean_motion_rev_day": 15.49913211
    },
    {
      "epoch": "2026-04-10T05:38:38.633568Z",
      "apogee_km": 418.3594426865129,
      "perigee_km": 414.7636882056795,
      "latitude_deg": -1.243071654190093e-05,
      "longitude_deg": 122.04599358013348,
      "height_km": 419.10712713871214,
      "semi_major_axis_km": 6794.698565446096,
      "eccentricity": 0.0002646,
      "inclination_deg": 53.1589,
      "raan_deg": 45.1789,
      "arg_perigee_deg": 155.7824,
      "mean_anomaly_deg": 204.331,
      "mean_motion_rev_day": 15.5005629
    }
  ]
}